    PK14X010  2015 01  2.5890  1.810268  0.708606   34.0281   61.5018   25.9993  20200129  15.0  4.0  P/2014 X1 (Elenin)                                       MPC 94281
    CK14X08B  2015 04  4.0564  3.004281  0.995222  351.2971   37.4869  149.7905  20200129  13.5  4.0  C/2014 XB8 (PANSTARRS)                                   MPC 96866
    CK14Y010  2016 01 16.8676  2.250532  1.001683  182.3432   19.5231   14.9179  20200129   9.5  4.0  C/2014 Y1 (PANSTARRS)                                    MPC100579
    CK15A010  2015 03 12.9693  1.997041  0.901336  244.9325  341.0332   80.2103  20200129  14.5  4.0  C/2015 A1 (PANSTARRS)                                    MPC 96279
    CK15A020  2015 08  1.8353  5.341055  1.000000  208.8369  258.5042  109.1696            10.5  4.0  C/2015 A2 (PANSTARRS)                                    MPC 93587
    PK15A030  2015 02 19.2579  1.156942  0.851821  249.2068  277.1587  172.5279  20200129  20.0  4.0  P/2015 A3 (PANSTARRS)                                    MPC 92275
    PK15B010  2015 09 17.3704  5.989952  0.369751  188.7234  353.0834   18.0229  20200129   8.5  4.0  P/2015 B1 (PANSTARRS)                                    MPC 99270
    CK15B020  2016 05  6.1429  3.368419  1.000254  284.7199  341.8737  105.0186  20200129   9.5  4.0  C/2015 B2 (PANSTARRS)                                    MPC108592
    PK15B040  2015 02  7.0423  3.748355  0.561067  227.5234  266.0264    1.7605  20200129  11.0  4.0  P/2015 B4 (Lemmon-PANSTARRS)                             MPC109141
    PK15C010  2015 04 29.3215  2.897118  0.560374  178.4018  348.8354   13.8842  20200129  12.5  4.0  P/2015 C1 (TOTAS-Gibbs)                                  MPC101096
    CK15C020  2015 03  3.9482  0.705703  0.997961  333.9590   49.5069   94.5359  20200129  14.0  4.0  C/2015 C2 (SWAN)                                         MPC 95211
    CK15D030  2016 05  3.1376  8.149437  1.003851    2.9985  157.0347  128.5424  20200129   5.5  4.0  C/2015 D3 (PANSTARRS)                                    MPC119995
    PK15D050  2014 04  2.5757  4.588324  0.489073   39.9968   74.0608   20.4935  20200129   9.0  4.0  P/2015 D5 (Kowalski)                                     MPC109141
    PK15D060  2015 07  7.3574  4.559534  0.362637  125.2793   46.1322   20.2104  20200129  10.5  4.0  P/2015 D6 (Lemmon-PANSTARRS)                             MPC 96866
    CK15E61R  2017 05 10.2634  1.041702  0.997716   68.2222  235.2036    6.3462  20200129  11.0  2.0  C/2015 ER61 (PANSTARRS)                                  MPC112390
    CK15E61b  2017 05 10.2410  1.043419  0.999076   68.3114  235.2387    6.3478  20200129  13.5  2.0  C/2015 E61-B (PANSTARRS)                                 MPEC 2018-BF5
    PK15F010  2021 10 27.2918  2.543361  0.278280  187.4014   40.4079    2.8026  20200129  12.5  4.0  P/2015 F1 (PANSTARRS)                                    MPC109142
    CK15F020  2015 04 29.3801  1.214390  0.968978  352.2258  262.4483   28.7283  20200129  16.5  4.0  C/2015 F2 (Polonia)                                      MPC 98561
    CK15F030  2015 03  7.5036  0.834551  0.995362   57.4491   31.7133   73.5421  20200129  14.5  4.0  C/2015 F3 (SWAN)                                         MPC 96279
    CK15F040  2015 08 11.7860  1.639876  0.985987   36.3182  285.9194   48.8045  20200129  11.0  4.0  C/2015 F4 (Jacques)                                      MPC115880
    CK15F050  2015 03 28.3444  0.349083  0.977580   13.4766  287.7500  149.3764  20200129  15.5  4.0  C/2015 F5 (SWAN-Xingming)                                MPC 95212
    CK15G00X  2015 08 27.5269  1.962377  0.878611  108.8190  235.4958   90.2641  20200129  14.0  4.0  C/2015 GX (PANSTARRS)                                    MPC102096
    CK15G020  2015 05 24.7111  0.779573  1.000610  257.6492  110.2445  147.6612  20200129  11.0  4.0  C/2015 G2 (MASTER)                                       MPC109142
    CK15H010  2015 03 27.1318  1.938031  0.939510   21.9354  325.8515  140.6694  20200129  13.5  4.0  C/2015 H1 (Bressi)                                       MPC 98561
    CK15H020  2016 09 14.1812  4.972691  1.005459  288.0241  350.6916   33.6717  20200129   7.5  4.0  C/2015 H2 (PANSTARRS)                                    MPC117068
    PK15H16G  2024 11  4.5793  3.096264  0.348683   47.2335   59.2181   18.8563  20200129  12.5  4.0  P/2015 HG16 (PANSTARRS)                                  MPC100280
    CK15J020  2015 09  9.9944  4.331071  0.985233  203.8890   56.7502   17.2748  20200129  10.0  4.0  C/2015 J2 (PANSTARRS)                                    MPC101096
    PK15J030  2021 04 22.0871  1.492189  0.554516  129.4287  111.3516    8.1307  20200129  16.5  4.0  P/2015 J3 (NEOWISE)                                      MPC 95733
    CK15K020  2015 06  8.9557  1.462584  0.995210   15.9373  223.7167   29.0856  20200129  20.0  4.0  C/2015 K2 (PANSTARRS)                                    MPC 95733
    CK15K040  2015 05  1.8487  2.017234  1.000898  357.7261  250.7290   80.2645  20200129  15.0  4.0  C/2015 K4 (PANSTARRS)                                    MPC 95733
    PK15K050  2015 06  6.6027  2.994523  0.554172  106.2687  134.1937   39.9475  20200129  13.5  4.0  P/2015 K5 (PANSTARRS)                                    MPC 95213
    CK15L02C  2015 05  2.2776  5.905371  1.000399  342.0258  223.5977   93.7211  20200129   8.0  4.0  C/2015 LC2 (PANSTARRS)                                   MPC111767
    CK15M010  2015 05 15.8973  2.098387  0.995317  164.1737  100.1742   57.3303  20200129  16.5  4.0  C/2015 M1 (PANSTARRS)                                    MPC 95734
    PK15M020  2015 09  5.7011  5.914723  0.181036  225.1636   86.5783    3.9736  20200129   8.5  4.0  P/2015 M2 (PANSTARRS)                                    MPC107684
    CK15M030  2015 08 26.2836  3.557435  0.974318  123.8684  143.0169   65.8799  20200129  12.0  4.0  C/2015 M3 (PANSTARRS)                                    MPC115881
    CK15O010  2018 02 19.3159  3.730309  1.000592   89.6287  299.8519  127.2223  20200129   6.5  4.0  C/2015 O1 (PANSTARRS)                                    MPC112390
    CK15P030  2015 07 27.4843  0.721520  0.997284  133.1036   87.9880   58.2009  20200129  15.5  4.0  C/2015 P3 (SWAN)                                         MPC 96280
    PK15P040  2016 01 18.8929  2.517958  0.583988  280.6057  104.7665    8.7179  20200129  14.0  4.0  P/2015 P4 (PANSTARRS)                                    MPC 99819
    PK15PM9D  2015 08 14.2545  4.825097  0.327882  352.3387  342.6558    2.0258  20200129  11.5  2.0  P/2015 PD229 (Cameron-ISON)                              MPC102952
    PK15Q010  2022 02 13.6109  1.807668  0.478915  199.8804  203.0523   22.4084  20200129  14.0  4.0  P/2015 Q1 (Scotti)                                       MPC 99819
    PK15Q020  2015 09  6.5023  1.826412  0.751320  244.4075  228.3742  146.4676  20200129  15.5  4.0  P/2015 Q2 (Pimentel)                                     MPC 96867
    PK15R010  2015 06 26.7314  2.155188  0.633574  300.3810   48.4831   22.6735  20200129  14.0  4.0  P/2015 R1 (PANSTARRS)                                    MPC 98562
    PK15R020  2015 06 10.6480  2.458188  0.452493  149.7005  168.6144   15.4713  20200129  14.5  4.0  P/2015 R2 (PANSTARRS)                                    MPC 95734
    CK15T020  2017 05 18.9775  6.933913  0.997555   30.6734   51.0489  124.5485  20200129   8.0  4.0  C/2015 T2 (PANSTARRS)                                    MPC117068
    PK15T030  2014 12 21.7056  2.127698  0.508181  178.6330  120.5019   13.0937            14.0  4.0  P/2015 T3 (PANSTARRS)                                    MPC 96280
    CK15T040  2016 06 17.5395  2.296943  0.971447  270.0569  251.8006   87.9640  20200129  11.0  4.0  C/2015 T4 (PANSTARRS)                                    MPC102953
    CK15T050  2016 01 21.9859  9.332371  0.667412   61.7948  311.0802   11.0491  20200129   7.5  4.0  C/2015 T5 (Sheppard-Tholen)                              MPC102097
    PK15T19O  2016 03  5.5038  2.927275  0.357743   89.2056  321.6427    6.4993  20200129  14.0  4.0  P/2015 TO19 (Lemmon-PANSTARRS)                           MPC102953
    PK15TK0P  2016 10 27.5146  3.387237  0.534923   82.7288    6.9806    8.7731  20200129  11.0  4.0  P/2015 TP200 (LINEAR)                                    MPC110080
    CK15TK9Q  2016 08 26.4065  1.415228  0.997986  282.1266  223.4114   11.3084  20200129  10.5  4.0  C/2015 TQ209 (LINEAR)                                    MPC101097
    CK15V010  2017 12 17.3823  4.267673  0.999119  179.6196  197.1880  139.2235  20200129   6.5  4.0  C/2015 V1 (PANSTARRS)                                    MPC115881
    CK15V020  2017 06 12.2051  1.640805  1.001834  164.9745   69.8569   49.8729  20200129   5.0  4.0  C/2015 V2 (Johnson)                                      MPC112390
    CK15V030  2015 11 24.0086  4.231499  0.993261    0.7105    2.2634   86.2402  20200129   9.0  4.0  C/2015 V3 (PANSTARRS)                                    MPC102953
    CK15V040  2016 08 28.8705  5.463684  0.704796  307.0503  179.9125   60.7626  20200129   8.5  4.0  C/2015 V4 (PANSTARRS)                                    MPC104791
    CK15V62L  2017 08 28.0932  2.713799  1.001167  128.7251   95.0900  165.8152  20200129   8.0  4.0  C/2015 VL62 (Lemmon-Yeung-PANSTARRS)                     MPC115881
    CK15W00Z  2016 04 14.0776  1.377436  0.990596   66.6592   40.1391  134.5643  20200129  15.0  4.0  C/2015 WZ (PANSTARRS)                                    MPC102098
    CK15W010  2016 05 15.4044  2.241366  1.000103   48.1984  114.3159   87.3742  20200129  13.0  4.0  C/2015 W1 (Gibbs)                                        MPC109142
    PK15W020  2015 09 30.0892  2.677227  0.633338  117.5692  294.2522   11.6069  20200129  13.0  4.0  P/2015 W2 (Catalina)                                     MPC101098
    PK15X010  2022 09  7.6170  2.109624  0.418924  218.9911  161.7749   12.1518  20200129  16.0  4.0  P/2015 X1 (PANSTARRS)                                    MPC101098
